0 COSMOS 2251 DEB
1 35664U 93036APF 13281.83349294  .00007060  00000-0  11317-2 0  4232
2 35664 073.8521 339.7230 0078641 217.7821 141.7245 14.69812936238896
0 COSMOS 2251 DEB
1 35664U 93036APF 13285.44082734  .00006962  00000-0  11066-2 0  4259
2 35664 073.8654 332.6417 0084585 209.4425 150.2439 14.69863794239422
0 COSMOS 2251 DEB
1 35664U 93036APF 13287.48264987  .00007385  00000-0  11831-2 0  4268
2 35664 073.8606 328.6498 0077289 205.9591 153.7458 14.69899700239729
0 COSMOS 2251 DEB
1 35664U 93036APF 13289.45637819  .00007739  00000-0  12453-2 0  4270
2 35664 073.8537 324.7863 0072407 201.2321 158.6380 14.69936329240013
0 COSMOS 2251 DEB
1 35664U 93036APF 13290.40918074  .00008100  00000-0  13012-2 0  4288
2 35664 073.8580 322.9179 0073262 201.0614 158.8730 14.69958438240155
0 COSMOS 2251 DEB
1 35664U 93036APF 13291.43001320  .00008285  00000-0  13286-2 0  4297
2 35664 073.8610 320.9134 0074203 199.3946 160.5021 14.69978682240304
0 COSMOS 2251 DEB
1 35664U 93036APF 13293.40361642  .00008638  00000-0  13846-2 0  4308
2 35664 073.8605 317.0401 0073629 196.0330 163.9826 14.70019536240591
0 COSMOS 2251 DEB
1 35664U 93036APF 13295.37715137  .00010045  00000-0  15788-2 0  4311
2 35664 073.8720 313.1735 0087662 187.1726 173.2187 14.70077502240881
